[
  {
    "OBJECT_NAME": "STARLINK-30885",
    "OBJECT_ID": "2023-177L",
    "EPOCH": "2025-06-14T14:09:09.216864",
    "MEAN_MOTION": 15.02516637,
    "ECCENTRICITY": 0.0001155,
    "INCLINATION": 43.0044,
    "RA_OF_ASC_NODE": 8.6268,
    "ARG_OF_PERICENTER": 265.6967,
    "MEAN_ANOMALY": 94.3743,
    "EPHEMERIS_TYPE": 0,
    "CLASSIFICATION_TYPE": "U",
    "NORAD_CAT_ID": 58361,
    "ELEMENT_SET_NO": 999,
    "REV_AT_EPOCH": 8790,
    "BSTAR": 0.00040895,
    "MEAN_MOTION_DOT": 5.322e-05,
    "MEAN_MOTION_DDOT": 0
  },
  {
    "OBJECT_NAME": "STARLINK-30890",
    "OBJECT_ID": "2023-177M",
    "EPOCH": "2025-06-14T06:05:43.080576",
    "MEAN_MOTION": 15.02533628,
    "ECCENTRICITY": 9.44e-05,
    "INCLINATION": 43.0034,
    "RA_OF_ASC_NODE": 10.401,
    "ARG_OF_PERICENTER": 273.2638,
    "MEAN_ANOMALY": 86.8096,
    "EPHEMERIS_TYPE": 0,
    "CLASSIFICATION_TYPE": "U",
    "NORAD_CAT_ID": 58362,
    "ELEMENT_SET_NO": 999,
    "REV_AT_EPOCH": 8778,
    "BSTAR": -4.3531e-05,
    "MEAN_MOTION_DOT": -7.91e-06,
    "MEAN_MOTION_DDOT": 0
  },
  {
    "OBJECT_NAME": "STARLINK-30909",
    "OBJECT_ID": "2023-177N",
    "EPOCH": "2025-06-14T06:04:06.435264",
    "MEAN_MOTION": 15.02538319,
    "ECCENTRICITY": 0.0001379,
    "INCLINATION": 43.0053,
    "RA_OF_ASC_NODE": 10.3947,
    "ARG_OF_PERICENTER": 259.3612,
    "MEAN_ANOMALY": 100.7075,
    "EPHEMERIS_TYPE": 0,
    "CLASSIFICATION_TYPE": "U",
    "NORAD_CAT_ID": 58363,
    "ELEMENT_SET_NO": 999,
    "REV_AT_EPOCH": 8783,
    "BSTAR": -2.483e-06,
    "MEAN_MOTION_DOT": -2.37e-06,
    "MEAN_MOTION_DDOT": 0
  },
  {
    "OBJECT_NAME": "STARLINK-30904",
    "OBJECT_ID": "2023-177P",
    "EPOCH": "2025-06-14T14:07:02.181216",
    "MEAN_MOTION": 15.02534226,
    "ECCENTRICITY": 0.0001076,
    "INCLINATION": 43.0039,
    "RA_OF_ASC_NODE": 6.8911,
    "ARG_OF_PERICENTER": 275.112,
    "MEAN_ANOMALY": 84.96,
    "EPHEMERIS_TYPE": 0,
    "CLASSIFICATION_TYPE": "U",
    "NORAD_CAT_ID": 58364,
    "ELEMENT_SET_NO": 999,
    "REV_AT_EPOCH": 8790,
    "BSTAR": -5.692e-06,
    "MEAN_MOTION_DOT": -2.8e-06,
    "MEAN_MOTION_DDOT": 0
  },
  {
    "OBJECT_NAME": "STARLINK-30918",
    "OBJECT_ID": "2023-177Q",
    "EPOCH": "2025-06-13T23:28:26.628672",
    "MEAN_MOTION": 15.02506504,
    "ECCENTRICITY": 0.0003019,
    "INCLINATION": 43.0086,
    "RA_OF_ASC_NODE": 11.7746,
    "ARG_OF_PERICENTER": 250.3978,
    "MEAN_ANOMALY": 109.6539,
    "EPHEMERIS_TYPE": 0,
    "CLASSIFICATION_TYPE": "U",
    "NORAD_CAT_ID": 58365,
    "ELEMENT_SET_NO": 999,
    "REV_AT_EPOCH": 8779,
    "BSTAR": -0.00022555,
    "MEAN_MOTION_DOT": -3.247e-05,
    "MEAN_MOTION_DDOT": 0
  },
  {
    "OBJECT_NAME": "STARLINK-30892",
    "OBJECT_ID": "2023-177R",
    "EPOCH": "2025-06-14T20:17:40.381728",
    "MEAN_MOTION": 15.02523249,
    "ECCENTRICITY": 0.0001424,
    "INCLINATION": 43.0039,
    "RA_OF_ASC_NODE": 7.1019,
    "ARG_OF_PERICENTER": 268.0479,
    "MEAN_ANOMALY": 92.02,
    "EPHEMERIS_TYPE": 0,
    "CLASSIFICATION_TYPE": "U",
    "NORAD_CAT_ID": 58366,
    "ELEMENT_SET_NO": 999,
    "REV_AT_EPOCH": 8793,
    "BSTAR": -0.00041318,
    "MEAN_MOTION_DOT": -5.779e-05,
    "MEAN_MOTION_DDOT": 0
  },
  {
    "OBJECT_NAME": "STARLINK-30891",
    "OBJECT_ID": "2023-177S",
    "EPOCH": "2025-06-13T20:12:09.651168",
    "MEAN_MOTION": 15.02538848,
    "ECCENTRICITY": 0.0001163,
    "INCLINATION": 43.0032,
    "RA_OF_ASC_NODE": 12.4651,
    "ARG_OF_PERICENTER": 269.7254,
    "MEAN_ANOMALY": 90.3455,
    "EPHEMERIS_TYPE": 0,
    "CLASSIFICATION_TYPE": "U",
    "NORAD_CAT_ID": 58367,
    "ELEMENT_SET_NO": 999,
    "REV_AT_EPOCH": 8771,
    "BSTAR": 2.1661e-05,
    "MEAN_MOTION_DOT": 8.9e-07,
    "MEAN_MOTION_DDOT": 0
  },
  {
    "OBJECT_NAME": "STARLINK-30889",
    "OBJECT_ID": "2023-177T",
    "EPOCH": "2025-06-13T20:15:21.671712",
    "MEAN_MOTION": 15.0253778,
    "ECCENTRICITY": 0.0001089,
    "INCLINATION": 43.0026,
    "RA_OF_ASC_NODE": 12.4857,
    "ARG_OF_PERICENTER": 267.3887,
    "MEAN_ANOMALY": 92.6831,
    "EPHEMERIS_TYPE": 0,
    "CLASSIFICATION_TYPE": "U",
    "NORAD_CAT_ID": 58368,
    "ELEMENT_SET_NO": 999,
    "REV_AT_EPOCH": 8777,
    "BSTAR": 3.4526e-05,
    "MEAN_MOTION_DOT": 2.63e-06,
    "MEAN_MOTION_DDOT": 0
  },
  {
    "OBJECT_NAME": "STARLINK-30870",
    "OBJECT_ID": "2023-177U",
    "EPOCH": "2025-06-14T13:41:58.041888",
    "MEAN_MOTION": 15.02539695,
    "ECCENTRICITY": 0.0001628,
    "INCLINATION": 43.0056,
    "RA_OF_ASC_NODE": 8.4739,
    "ARG_OF_PERICENTER": 271.4087,
    "MEAN_ANOMALY": 88.6569,
    "EPHEMERIS_TYPE": 0,
    "CLASSIFICATION_TYPE": "U",
    "NORAD_CAT_ID": 58369,
    "ELEMENT_SET_NO": 999,
    "REV_AT_EPOCH": 8788,
    "BSTAR": 4.8238e-05,
    "MEAN_MOTION_DOT": 4.48e-06,
    "MEAN_MOTION_DDOT": 0
  },
  {
    "OBJECT_NAME": "STARLINK-30888",
    "OBJECT_ID": "2023-177V",
    "EPOCH": "2025-06-14T06:37:40.344960",
    "MEAN_MOTION": 15.02537031,
    "ECCENTRICITY": 0.0001321,
    "INCLINATION": 43.0065,
    "RA_OF_ASC_NODE": 10.5565,
    "ARG_OF_PERICENTER": 269.4834,
    "MEAN_ANOMALY": 90.5857,
    "EPHEMERIS_TYPE": 0,
    "CLASSIFICATION_TYPE": "U",
    "NORAD_CAT_ID": 58370,
    "ELEMENT_SET_NO": 999,
    "REV_AT_EPOCH": 8784,
    "BSTAR": 4.3037e-05,
    "MEAN_MOTION_DOT": 3.78e-06,
    "MEAN_MOTION_DDOT": 0
  },
  {
    "OBJECT_NAME": "STARLINK-30859",
    "OBJECT_ID": "2023-177W",
    "EPOCH": "2025-06-14T06:23:17.091456",
    "MEAN_MOTION": 15.02536046,
    "ECCENTRICITY": 0.0001236,
    "INCLINATION": 43.004,
    "RA_OF_ASC_NODE": 10.4609,
    "ARG_OF_PERICENTER": 271.4854,
    "MEAN_ANOMALY": 88.5846,
    "EPHEMERIS_TYPE": 0,
    "CLASSIFICATION_TYPE": "U",
    "NORAD_CAT_ID": 58371,
    "ELEMENT_SET_NO": 999,
    "REV_AT_EPOCH": 8784,
    "BSTAR": 5.7833e-05,
    "MEAN_MOTION_DOT": 5.78e-06,
    "MEAN_MOTION_DDOT": 0
  },
  {
    "OBJECT_NAME": "STARLINK-30884",
    "OBJECT_ID": "2023-177X",
    "EPOCH": "2025-06-14T07:11:04.309152",
    "MEAN_MOTION": 15.02537217,
    "ECCENTRICITY": 0.0001198,
    "INCLINATION": 43.0059,
    "RA_OF_ASC_NODE": 9.8797,
    "ARG_OF_PERICENTER": 272.7952,
    "MEAN_ANOMALY": 87.2754,
    "EPHEMERIS_TYPE": 0,
    "CLASSIFICATION_TYPE": "U",
    "NORAD_CAT_ID": 58372,
    "ELEMENT_SET_NO": 999,
    "REV_AT_EPOCH": 8785,
    "BSTAR": 2.7066e-05,
    "MEAN_MOTION_DOT": 1.62e-06,
    "MEAN_MOTION_DDOT": 0
  },
  {
    "OBJECT_NAME": "STARLINK-30852",
    "OBJECT_ID": "2023-177Y",
    "EPOCH": "2025-06-13T23:52:22.874880",
    "MEAN_MOTION": 15.02542079,
    "ECCENTRICITY": 0.0001058,
    "INCLINATION": 43.0043,
    "RA_OF_ASC_NODE": 11.8615,
    "ARG_OF_PERICENTER": 253.1905,
    "MEAN_ANOMALY": 106.8821,
    "EPHEMERIS_TYPE": 0,
    "CLASSIFICATION_TYPE": "U",
    "NORAD_CAT_ID": 58373,
    "ELEMENT_SET_NO": 999,
    "REV_AT_EPOCH": 8779,
    "BSTAR": 0.00010405,
    "MEAN_MOTION_DOT": 1.202e-05,
    "MEAN_MOTION_DDOT": 0
  },
  {
    "OBJECT_NAME": "STARLINK-30911",
    "OBJECT_ID": "2023-178A",
    "EPOCH": "2025-06-14T07:27:11.408544",
    "MEAN_MOTION": 15.30189125,
    "ECCENTRICITY": 0.0001056,
    "INCLINATION": 53.1587,
    "RA_OF_ASC_NODE": 167.5049,
    "ARG_OF_PERICENTER": 103.2635,
    "MEAN_ANOMALY": 256.8483,
    "EPHEMERIS_TYPE": 0,
    "CLASSIFICATION_TYPE": "U",
    "NORAD_CAT_ID": 58374,
    "ELEMENT_SET_NO": 999,
    "REV_AT_EPOCH": 8879,
    "BSTAR": -2.5473e-05,
    "MEAN_MOTION_DOT": -1.113e-05,
    "MEAN_MOTION_DDOT": 0
  }
]