STARLINK-30885          
1 58361U 23177L   25165.58969001  .00005322  00000+0  40895-3 0  9990
2 58361  43.0044   8.6268 0001155 265.6967  94.3743 15.02516637 87903
STARLINK-30890          
1 58362U 23177M   25165.25397084 -.00000791  00000+0 -43531-4 0  9999
2 58362  43.0034  10.4010 0000944 273.2638  86.8096 15.02533628 87786
STARLINK-30909          
1 58363U 23177N   25165.25285226 -.00000237  00000+0 -24830-5 0  9991
2 58363  43.0053  10.3947 0001379 259.3612 100.7075 15.02538319 87837
STARLINK-30904          
1 58364U 23177P   25165.58821969 -.00000280  00000+0 -56920-5 0  9991
2 58364  43.0039   6.8911 0001076 275.1120  84.9600 15.02534226 87905
STARLINK-30918          
1 58365U 23177Q   25164.97808598 -.00003247  00000+0 -22555-3 0  9998
2 58365  43.0086  11.7746 0003019 250.3978 109.6539 15.02506504 87795
STARLINK-30892          
1 58366U 23177R   25165.84560627 -.00005779  00000+0 -41318-3 0  9994
2 58366  43.0039   7.1019 0001424 268.0479  92.0200 15.02523249 87937
STARLINK-30891          
1 58367U 23177S   25164.84177837  .00000089  00000+0  21661-4 0  9998
2 58367  43.0032  12.4651 0001163 269.7254  90.3455 15.02538848 87711
STARLINK-30889          
1 58368U 23177T   25164.84400083  .00000263  00000+0  34526-4 0  9999
2 58368  43.0026  12.4857 0001089 267.3887  92.6831 15.02537780 87779
STARLINK-30870          
1 58369U 23177U   25165.57081067  .00000448  00000+0  48238-4 0  9998
2 58369  43.0056   8.4739 0001628 271.4087  88.6569 15.02539695 87886
STARLINK-30888          
1 58370U 23177V   25165.27616140  .00000378  00000+0  43037-4 0  9997
2 58370  43.0065  10.5565 0001321 269.4834  90.5857 15.02537031 87846
STARLINK-30859          
1 58371U 23177W   25165.26617004  .00000578  00000+0  57833-4 0  9998
2 58371  43.0040  10.4609 0001236 271.4854  88.5846 15.02536046 87848
STARLINK-30884          
1 58372U 23177X   25165.29935543  .00000162  00000+0  27066-4 0  9997
2 58372  43.0059   9.8797 0001198 272.7952  87.2754 15.02537217 87855
STARLINK-30852          
1 58373U 23177Y   25164.99470920  .00001202  00000+0  10405-3 0  9991
2 58373  43.0043  11.8615 0001058 253.1905 106.8821 15.02542079 87795
STARLINK-30911          
1 58374U 23178A   25165.31054871 -.00001113  00000+0 -25473-4 0  9998
2 58374  53.1587 167.5049 0001056 103.2635 256.8483 15.30189125 88795
